NOAA 1 [-]              
1 04793U 70106A   12352.63304432 -.00000031  00000-0  10000-3 0  4876
2 04793 102.0462  21.9629 0032162 164.0996 196.1090 12.53955117923287
NOAA 2 [-]              
1 06235U 72082A   12352.62568205 -.00000027  00000-0  10000-3 0  5868
2 06235 101.4429 334.8484 0003654 302.1749  57.8970 12.53031800837712
NOAA 3 [-]              
1 06920U 73086A   12352.50535459 -.00000030  00000-0  10000-3 0  4780
2 06920 101.7233 341.4763 0006434 279.9937  80.0399 12.40331503770888
NOAA 4 [-]              
1 07529U 74089A   12352.58971041 -.00000027  00000-0  10000-3 0  4886
2 07529 101.4275 342.9789 0008967 336.1450  23.9207 12.53077582742296
NOAA 5 [-]              
1 09057U 76077A   12352.63376192 -.00000030  00000-0  10000-3 0  3675
2 09057 101.7650   8.7613 0009820 121.9492 238.2527 12.37775241644782
TIROS N [P]             
1 11060U 78096A   12352.57809171  .00000069  00000-0  56429-4 0  2290
2 11060  99.0458 354.8468 0010723 341.8574  18.2215 14.17732097980218
NOAA 6 [P]              
1 11416U 79057A   12352.60543711  .00000191  00000-0  86433-4 0  3488
2 11416  98.4289 343.6942 0011330  71.3235 288.9178 14.32419689744831
NOAA 7 [-]              
1 12553U 81059A   12352.43137557  .00000013  00000-0  28327-4 0  4419
2 12553  98.8224 298.7366 0010759 255.6547 104.3432 14.16923327626670
NOAA 8 [-]              
1 13923U 83022A   12352.63000712  .00000122  00000-0  66212-4 0  3524
2 13923  98.4623   3.9416 0015026 316.4061  43.5932 14.27946605547422
NOAA 9 [P]              
1 15427U 84123A   12352.44282094 -.00000355  00000-0 -15982-3 0  2472
2 15427  98.5965 307.3088 0014835 344.0517  16.0166 14.15544725445929
NOAA 10 [-]             
1 16969U 86073A   12352.51211884  .00000246  00000-0  11751-3 0  1776
2 16969  98.5634  18.1425 0013076  59.5662 300.6827 14.27603505366025
NOAA 11 [-]             
1 19531U 88089A   12352.57149974  .00000249  00000-0  15106-3 0  1680
2 19531  98.7242  73.7914 0011993  62.0488 298.1903 14.14996521250444
NOAA 12 [-]             
1 21263U 91032A   12352.66352465  .00000052  00000-0  40652-4 0  6512
2 21263  98.7141  13.3447 0014442  31.0658 329.1371 14.25536891122696
NOAA 13 [-]             
1 22739U 93050A   12352.69737591  .00000021  00000-0  34812-4 0  1683
2 22739  98.7651  67.1077 0009346 168.9856 191.1522 14.12377689997569
NOAA 14 [-]             
1 23455U 94089A   12352.68692411  .00000028  00000-0  38047-4 0  1324
2 23455  98.8168  73.7859 0009788 149.3135 210.8614 14.13886178926723
NOAA 15 [P]             
1 25338U 98030A   12352.51361258  .00000046  00000-0  38352-4 0  5323
2 25338  98.7071 337.8679 0009829 298.5702  61.4500 14.25157986758968
NOAA 16 [P]             
1 26536U 00055A   12352.46496056  .00000456  00000-0  27026-3 0   115
2 26536  99.0697  37.1973 0009811 288.7627  71.2488 14.12820509630914
NOAA 17 [P]             
1 27453U 02032A   12352.63276385  .00000099  00000-0  60163-4 0  9528
2 27453  98.3215  10.2690 0011279 343.3054  16.7740 14.24521359544870
NOAA 18 [+]             
1 28654U 05018A   12352.63373567 -.00000027  00000-0  10513-4 0  4340
2 28654  99.0738 312.4924 0014509   2.3078 357.8140 14.11745447390443
NOAA 19 [+]             
1 33591U 09005A   12352.61197851  .00000314  00000-0  19776-3 0  6196
2 33591  98.8840 290.2903 0013493 220.7787 139.2369 14.11433262198882
NPP [+]                 
1 37849U 11061A   12352.64028540  .00000223  00000-0  12637-3 0  3681
2 37849  98.7349 287.4306 0000754 134.9105 225.2116 14.19553570 59061
